XRISM                   
1 57800U 23137A   23275.42971727  .00006055  00000+0  49324-3 0  9994
2 57800  31.0034 215.5628 0010052 170.5806 189.5018 14.98058755  3813
